[{"OBJECT_NAME":"STARLINK-4355","OBJECT_ID":"2022-077F","EPOCH":"2026-03-09T12:26:42.033120","MEAN_MOTION":15.05643548,"ECCENTRICITY":0.00014098,"INCLINATION":97.603,"RA_OF_ASC_NODE":251.082,"ARG_OF_PERICENTER":87.056,"MEAN_ANOMALY":273.0828,"EPHEMERIS_TYPE":0,"CLASSIFICATION_TYPE":"U","NORAD_CAT_ID":53048,"ELEMENT_SET_NO":999,"REV_AT_EPOCH":20095,"BSTAR":1.3313083e-5,"MEAN_MOTION_DOT":1.31e-6,"MEAN_MOTION_DDOT":0},{"OBJECT_NAME":"MUSAT-2","OBJECT_ID":"2024-043B","EPOCH":"2026-03-09T22:04:01.255008","MEAN_MOTION":15.07177436,"ECCENTRICITY":0.0006495,"INCLINATION":97.8438,"RA_OF_ASC_NODE":205.4399,"ARG_OF_PERICENTER":314.3478,"MEAN_ANOMALY":45.7216,"EPHEMERIS_TYPE":0,"CLASSIFICATION_TYPE":"U","NORAD_CAT_ID":59099,"ELEMENT_SET_NO":999,"REV_AT_EPOCH":11013,"BSTAR":0.00067214198,"MEAN_MOTION_DOT":0.00010059,"MEAN_MOTION_DDOT":0}]
